[
    {
        "Altitude(m)": 553475.2298466051,
        "Argument of Periapsis(deg)": 0.0,
        "Eccentricity": 0.0,
        "Inclination(deg)": 53.0,
        "Latitude(deg)": 13.004440190080668,
        "Longitude(deg)": 109.99759581994847,
        "Mean Anomaly(deg)": 16.363600000000012,
        "RAAN(deg)": 200.0,
        "Satellite Name": "Starlink Shell 1 881",
        "Satellite Number": 881,
        "Semi-Major Axis(m)": 6931778.249405717,
        "Time(s)": 0
    },
    {
        "Altitude(m)": 553482.4816425979,
        "Argument of Periapsis(deg)": 0.00034857847951123687,
        "Eccentricity": 0.0,
        "Inclination(deg)": 53.0,
        "Latitude(deg)": 13.500381473669998,
        "Longitude(deg)": 110.3538445768782,
        "Mean Anomaly(deg)": 16.990431203556707,
        "RAAN(deg)": 199.99948122992257,
        "Satellite Name": "Starlink Shell 1 881",
        "Satellite Number": 881,
        "Semi-Major Axis(m)": 6931778.249405717,
        "Time(s)": 10
    },
    {
        "Altitude(m)": 553492.2657243427,
        "Argument of Periapsis(deg)": 0.0006971569590224737,
        "Eccentricity": 0.0,
        "Inclination(deg)": 53.0,
        "Latitude(deg)": 13.995674964205314,
        "Longitude(deg)": 110.71173939286666,
        "Mean Anomaly(deg)": 17.61726240711343,
        "RAAN(deg)": 199.99896245984505,
        "Satellite Name": "Starlink Shell 1 881",
        "Satellite Number": 881,
        "Semi-Major Axis(m)": 6931778.249405717,
        "Time(s)": 20
    },
    {
        "Altitude(m)": 553504.5547409981,
        "Argument of Periapsis(deg)": 0.0010457354385337105,
        "Eccentricity": 0.0,
        "Inclination(deg)": 53.0,
        "Latitude(deg)": 14.490292994078093,
        "Longitude(deg)": 111.07134760873363,
        "Mean Anomaly(deg)": 18.24409361067015,
        "RAAN(deg)": 199.9984436897676,
        "Satellite Name": "Starlink Shell 1 881",
        "Satellite Number": 881,
        "Semi-Major Axis(m)": 6931778.249405717,
        "Time(s)": 30
    },
    {
        "Altitude(m)": 553519.3202091696,
        "Argument of Periapsis(deg)": 0.0013943139180449475,
        "Eccentricity": 0.0,
        "Inclination(deg)": 53.0,
        "Latitude(deg)": 14.984207523099569,
        "Longitude(deg)": 111.4327378024679,
        "Mean Anomaly(deg)": 18.870924814226868,
        "RAAN(deg)": 199.9979249196901,
        "Satellite Name": "Starlink Shell 1 881",
        "Satellite Number": 881,
        "Semi-Major Axis(m)": 6931778.249405717,
        "Time(s)": 40
    },
    {
        "Altitude(m)": 553536.5325297575,
        "Argument of Periapsis(deg)": 0.0017428923975561844,
        "Eccentricity": 0.0,
        "Inclination(deg)": 53.0,
        "Latitude(deg)": 15.477390122057566,
        "Longitude(deg)": 111.79597880763697,
        "Mean Anomaly(deg)": 19.497756017783566,
        "RAAN(deg)": 199.9974061496126,
        "Satellite Name": "Starlink Shell 1 881",
        "Satellite Number": 881,
        "Semi-Major Axis(m)": 6931778.249405717,
        "Time(s)": 50
    },
    {
        "Altitude(m)": 553556.1610053208,
        "Argument of Periapsis(deg)": 0.002091470877067421,
        "Eccentricity": 0.0,
        "Inclination(deg)": 53.0,
        "Latitude(deg)": 15.969811955925874,
        "Longitude(deg)": 112.1611402446575,
        "Mean Anomaly(deg)": 20.12458722134029,
        "RAAN(deg)": 199.99688737953517,
        "Satellite Name": "Starlink Shell 1 881",
        "Satellite Number": 881,
        "Semi-Major Axis(m)": 6931778.249405717,
        "Time(s)": 60
    },
    {
        "Altitude(m)": 553578.1738579856,
        "Argument of Periapsis(deg)": 0.0024400493565786582,
        "Eccentricity": 0.0,
        "Inclination(deg)": 53.0,
        "Latitude(deg)": 16.461443766713572,
        "Longitude(deg)": 112.52829305203029,
        "Mean Anomaly(deg)": 20.751418424897007,
        "RAAN(deg)": 199.9963686094577,
        "Satellite Name": "Starlink Shell 1 881",
        "Satellite Number": 881,
        "Semi-Major Axis(m)": 6931778.249405717,
        "Time(s)": 70
    },
    {
        "Altitude(m)": 553602.5382478513,
        "Argument of Periapsis(deg)": 0.002788627836089895,
        "Eccentricity": 0.0,
        "Inclination(deg)": 53.0,
        "Latitude(deg)": 16.9522558559433,
        "Longitude(deg)": 112.89750850464026,
        "Mean Anomaly(deg)": 21.37824962845373,
        "RAAN(deg)": 199.9958498393802,
        "Satellite Name": "Starlink Shell 1 881",
        "Satellite Number": 881,
        "Semi-Major Axis(m)": 6931778.249405717,
        "Time(s)": 80
    },
    {
        "Altitude(m)": 553629.2202919457,
        "Argument of Periapsis(deg)": 0.0031372063156011316,
        "Eccentricity": 0.0,
        "Inclination(deg)": 53.0,
        "Latitude(deg)": 17.44221806674416,
        "Longitude(deg)": 113.26885874483999,
        "Mean Anomaly(deg)": 22.00508083201045,
        "RAAN(deg)": 199.99533106930275,
        "Satellite Name": "Starlink Shell 1 881",
        "Satellite Number": 881,
        "Semi-Major Axis(m)": 6931778.249405717,
        "Time(s)": 90
    },
    {
        "Altitude(m)": 553658.1850836297,
        "Argument of Periapsis(deg)": 0.0034857847951123688,
        "Eccentricity": 0.0,
        "Inclination(deg)": 53.0,
        "Latitude(deg)": 17.931299765547763,
        "Longitude(deg)": 113.64241731341204,
        "Mean Anomaly(deg)": 22.631912035567147,
        "RAAN(deg)": 199.9948122992253,
        "Satellite Name": "Starlink Shell 1 881",
        "Satellite Number": 881,
        "Semi-Major Axis(m)": 6931778.249405717,
        "Time(s)": 100
    },
    {
        "Altitude(m)": 553689.396712521,
        "Argument of Periapsis(deg)": 0.003834363274623606,
        "Eccentricity": 0.0,
        "Inclination(deg)": 53.0,
        "Latitude(deg)": 18.419469823376346,
        "Longitude(deg)": 114.01825816749823,
        "Mean Anomaly(deg)": 23.258743239123866,
        "RAAN(deg)": 199.9942935291478,
        "Satellite Name": "Starlink Shell 1 881",
        "Satellite Number": 881,
        "Semi-Major Axis(m)": 6931778.249405717,
        "Time(s)": 110
    },
    {
        "Altitude(m)": 553722.8182849112,
        "Argument of Periapsis(deg)": 0.004182941754134842,
        "Eccentricity": 0.0,
        "Inclination(deg)": 53.0,
        "Latitude(deg)": 18.906696596709132,
        "Longitude(deg)": 114.3964562112064,
        "Mean Anomaly(deg)": 23.885574442680564,
        "RAAN(deg)": 199.99377475907033,
        "Satellite Name": "Starlink Shell 1 881",
        "Satellite Number": 881,
        "Semi-Major Axis(m)": 6931778.249405717,
        "Time(s)": 120
    },
    {
        "Altitude(m)": 553758.411944581,
        "Argument of Periapsis(deg)": 0.004531520233646079,
        "Eccentricity": 0.0,
        "Inclination(deg)": 53.0,
        "Latitude(deg)": 19.392947907916522,
        "Longitude(deg)": 114.77708782597495,
        "Mean Anomaly(deg)": 24.51240564623731,
        "RAAN(deg)": 199.9932559889929,
        "Satellite Name": "Starlink Shell 1 881",
        "Satellite Number": 881,
        "Semi-Major Axis(m)": 6931778.249405717,
        "Time(s)": 130
    },
    {
        "Altitude(m)": 553796.1388941642,
        "Argument of Periapsis(deg)": 0.0048800987131573164,
        "Eccentricity": 0.0,
        "Inclination(deg)": 53.0,
        "Latitude(deg)": 19.878191025250935,
        "Longitude(deg)": 115.16022988777314,
        "Mean Anomaly(deg)": 25.139236849794006,
        "RAAN(deg)": 199.99273721891538,
        "Satellite Name": "Starlink Shell 1 881",
        "Satellite Number": 881,
        "Semi-Major Axis(m)": 6931778.249405717,
        "Time(s)": 140
    },
    {
        "Altitude(m)": 553835.9594168575,
        "Argument of Periapsis(deg)": 0.005228677192668553,
        "Eccentricity": 0.0,
        "Inclination(deg)": 53.0,
        "Latitude(deg)": 20.362392642382517,
        "Longitude(deg)": 115.54596029683307,
        "Mean Anomaly(deg)": 25.76606805335073,
        "RAAN(deg)": 199.9922184488379,
        "Satellite Name": "Starlink Shell 1 881",
        "Satellite Number": 881,
        "Semi-Major Axis(m)": 6931778.249405717,
        "Time(s)": 150
    },
    {
        "Altitude(m)": 553877.8328986506,
        "Argument of Periapsis(deg)": 0.00557725567217979,
        "Eccentricity": 0.0,
        "Inclination(deg)": 53.0,
        "Latitude(deg)": 20.84551885746864,
        "Longitude(deg)": 115.93435850697861,
        "Mean Anomaly(deg)": 26.392899256907445,
        "RAAN(deg)": 199.99169967876043,
        "Satellite Name": "Starlink Shell 1 881",
        "Satellite Number": 881,
        "Semi-Major Axis(m)": 6931778.249405717,
        "Time(s)": 160
    },
    {
        "Altitude(m)": 553921.7178508928,
        "Argument of Periapsis(deg)": 0.0059258341516910265,
        "Eccentricity": 0.0,
        "Inclination(deg)": 53.0,
        "Latitude(deg)": 21.32753515174929,
        "Longitude(deg)": 116.32550454161495,
        "Mean Anomaly(deg)": 27.019730460464146,
        "RAAN(deg)": 199.99118090868294,
        "Satellite Name": "Starlink Shell 1 881",
        "Satellite Number": 881,
        "Semi-Major Axis(m)": 6931778.249405717,
        "Time(s)": 170
    },
    {
        "Altitude(m)": 553967.5719333325,
        "Argument of Periapsis(deg)": 0.006274412631202263,
        "Eccentricity": 0.0,
        "Inclination(deg)": 53.0,
        "Latitude(deg)": 21.808406367656158,
        "Longitude(deg)": 116.71947952205684,
        "Mean Anomaly(deg)": 27.646561664020886,
        "RAAN(deg)": 199.9906621386055,
        "Satellite Name": "Starlink Shell 1 881",
        "Satellite Number": 881,
        "Semi-Major Axis(m)": 6931778.249405717,
        "Time(s)": 180
    }
]